0 CBERS 1 DEB
1 30783U 99057NS  13282.05071691  .00001390  00000-0  55356-3 0  7118
2 30783 098.2897 206.3434 0048933 060.0150 062.2622 14.29429146345742
0 CBERS 1 DEB
1 30783U 99057NS  13283.10122096  .00001337  00000-0  53304-3 0  7124
2 30783 098.2898 207.3432 0048945 057.0072 067.9929 14.29432677345895
0 CBERS 1 DEB
1 30783U 99057NS  13285.53698079  .00001222  00000-0  48869-3 0  7147
2 30783 098.2902 209.6615 0048940 050.0463 002.0694 14.29439018346246
0 CBERS 1 DEB
1 30783U 99057NS  13286.79132613  .00001497  00000-0  59494-3 0  7154
2 30783 098.2904 210.8553 0048936 046.4496 336.7920 14.29441233346413
0 CBERS 1 DEB
1 30783U 99057NS  13287.84383303  .00001697  00000-0  67230-3 0  7165
2 30783 098.2906 211.8571 0048911 043.4439 352.8709 14.29446286346577
0 CBERS 1 DEB
1 30783U 99057NS  13289.26643733  .00001542  00000-0  61212-3 0  7173
2 30783 098.2907 213.2112 0048876 039.3808 113.4577 14.29452985346778
0 CBERS 1 DEB
1 30783U 99057NS  13290.50729075  .00001699  00000-0  67282-3 0  7183
2 30783 098.2907 214.3925 0048856 035.8435 018.7930 14.29456980346956
0 CBERS 1 DEB
1 30783U 99057NS  13291.69943428  .00001748  00000-0  69193-3 0  7193
2 30783 098.2907 215.5274 0048814 032.4281 033.5065 14.29459890347129
0 CBERS 1 DEB
1 30783U 99057NS  13292.74783317  .00001897  00000-0  74953-3 0  7206
2 30783 098.2907 216.5254 0048773 029.4160 028.5377 14.29463229347271
0 CBERS 1 DEB
1 30783U 99057NS  13293.79861716  .00001892  00000-0  74730-3 0  7211
2 30783 098.2906 217.5258 0048722 026.3909 035.8617 14.29466864347429
0 CBERS 1 DEB
1 30783U 99057NS  13295.06993464  .00001914  00000-0  75590-3 0  7220
2 30783 098.2907 218.7359 0048634 022.6901 098.1075 14.29471519347601
